{
  "type": "FeatureCollection",
  "features": [
    {
      "type": "Feature",
      "properties": {
        "norad_id": 58701,
        "name": "TIANMU-1 16",
        "group": "weather",
        "lat": 69.35328497850848,
        "lon": 8.513336912248388,
        "alt_km": 488.7829257349267,
        "timestamp": "2025-12-13T07:35:41.187865+00:00",
        "meta_object_name": "TIANMU-1 16",
        "meta_object_id": "2024-004B",
        "meta_epoch": "2025-12-13T00:48:55.992960",
        "meta_mean_motion": 15.24439832,
        "meta_eccentricity": 0.0004441,
        "meta_inclination": 97.4571,
        "meta_ra_of_asc_node": 167.8909,
        "meta_arg_of_pericenter": 295.5854,
        "meta_mean_anomaly": 64.4924,
        "meta_ephemeris_type": 0,
        "meta_classification_type": "U",
        "meta_norad_cat_id": 58701,
        "meta_element_set_no": 999,
        "meta_rev_at_epoch": 10739,
        "meta_bstar": 0.00039445321,
        "meta_mean_motion_dot": 9.614e-05,
        "meta_mean_motion_ddot": 0,
        "tle_line1": "1 58701U 24004B   25347.03398140  .00009614  00000+0  39445-3 0  9997",
        "tle_line2": "2 58701  97.4571 167.8909 0004441 295.5854  64.4924 15.24439832107397"
      },
      "geometry": {
        "type": "Point",
        "coordinates": [
          8.513336912248388,
          69.35328497850848
        ]
      }
    },
    {
      "type": "Feature",
      "properties": {
        "norad_id": 58702,
        "name": "TIANMU-1 17",
        "group": "weather",
        "lat": -13.813128937152364,
        "lon": -13.263941974128052,
        "alt_km": 497.64438277573026,
        "timestamp": "2025-12-13T07:35:41.187874+00:00",
        "meta_object_name": "TIANMU-1 17",
        "meta_object_id": "2024-004C",
        "meta_epoch": "2025-12-13T00:26:44.328768",
        "meta_mean_motion": 15.24482902,
        "meta_eccentricity": 0.00036718,
        "meta_inclination": 97.4604,
        "meta_ra_of_asc_node": 168.2858,
        "meta_arg_of_pericenter": 299.1956,
        "meta_mean_anomaly": 60.8914,
        "meta_ephemeris_type": 0,
        "meta_classification_type": "U",
        "meta_norad_cat_id": 58702,
        "meta_element_set_no": 999,
        "meta_rev_at_epoch": 10738,
        "meta_bstar": 0.00038356317,
        "meta_mean_motion_dot": 9.358e-05,
        "meta_mean_motion_ddot": 0,
        "tle_line1": "1 58702U 24004C   25347.01856862  .00009358  00000+0  38356-3 0  9991",
        "tle_line2": "2 58702  97.4604 168.2858 0003671 299.1956  60.8914 15.24482902107384"
      },
      "geometry": {
        "type": "Point",
        "coordinates": [
          -13.263941974128052,
          -13.813128937152364
        ]
      }
    },
    {
      "type": "Feature",
      "properties": {
        "norad_id": 58703,
        "name": "TIANMU-1 18",
        "group": "weather",
        "lat": -73.01718645668161,
        "lon": -165.80654125411826,
        "alt_km": 497.6556220940038,
        "timestamp": "2025-12-13T07:35:41.187883+00:00",
        "meta_object_name": "TIANMU-1 18",
        "meta_object_id": "2024-004D",
        "meta_epoch": "2025-12-13T00:02:42.963360",
        "meta_mean_motion": 15.24469834,
        "meta_eccentricity": 0.00030319,
        "meta_inclination": 97.4622,
        "meta_ra_of_asc_node": 168.4646,
        "meta_arg_of_pericenter": 299.5326,
        "meta_mean_anomaly": 60.5609,
        "meta_ephemeris_type": 0,
        "meta_classification_type": "U",
        "meta_norad_cat_id": 58703,
        "meta_element_set_no": 999,
        "meta_rev_at_epoch": 10738,
        "meta_bstar": 0.00040172409,
        "meta_mean_motion_dot": 9.8e-05,
        "meta_mean_motion_ddot": 0,
        "tle_line1": "1 58703U 24004D   25347.00188615  .00009800  00000+0  40172-3 0  9996",
        "tle_line2": "2 58703  97.4622 168.4646 0003031 299.5326  60.5609 15.24469834107384"
      },
      "geometry": {
        "type": "Point",
        "coordinates": [
          -165.80654125411826,
          -73.01718645668161
        ]
      }
    },
    {
      "type": "Feature",
      "properties": {
        "norad_id": 58990,
        "name": "INSAT-3DS",
        "group": "weather",
        "lat": -0.006384110365388676,
        "lon": -81.74846875829806,
        "alt_km": 35780.56090687734,
        "timestamp": "2025-12-13T07:35:41.187895+00:00",
        "meta_object_name": "INSAT-3DS",
        "meta_object_id": "2024-033A",
        "meta_epoch": "2025-12-12T22:25:54.822720",
        "meta_mean_motion": 1.00272576,
        "meta_eccentricity": 0.00012984,
        "meta_inclination": 0.0412,
        "meta_ra_of_asc_node": 135.3401,
        "meta_arg_of_pericenter": 128.3741,
        "meta_mean_anomaly": 236.7203,
        "meta_ephemeris_type": 0,
        "meta_classification_type": "U",
        "meta_norad_cat_id": 58990,
        "meta_element_set_no": 999,
        "meta_rev_at_epoch": 4520,
        "meta_bstar": 0,
        "meta_mean_motion_dot": -1.43e-06,
        "meta_mean_motion_ddot": 0,
        "tle_line1": "1 58990U 24033A   25346.93466230 -.00000143  00000+0  00000+0 0  9993",
        "tle_line2": "2 58990   0.0412 135.3401 0001298 128.3741 236.7203  1.00272576 45207"
      },
      "geometry": {
        "type": "Point",
        "coordinates": [
          -81.74846875829806,
          -0.006384110365388676
        ]
      }
    },
    {
      "type": "Feature",
      "properties": {
        "norad_id": 59051,
        "name": "METEOR-M2 4",
        "group": "weather",
        "lat": -66.89421689124597,
        "lon": 103.24477015431259,
        "alt_km": 826.0520508800219,
        "timestamp": "2025-12-13T07:35:41.187905+00:00",
        "meta_object_name": "METEOR-M2 4",
        "meta_object_id": "2024-039A",
        "meta_epoch": "2025-12-12T23:40:36.597216",
        "meta_mean_motion": 14.22401341,
        "meta_eccentricity": 0.00070253,
        "meta_inclination": 98.6766,
        "meta_ra_of_asc_node": 303.8915,
        "meta_arg_of_pericenter": 357.7946,
        "meta_mean_anomaly": 2.3199,
        "meta_ephemeris_type": 0,
        "meta_classification_type": "U",
        "meta_norad_cat_id": 59051,
        "meta_element_set_no": 999,
        "meta_rev_at_epoch": 9279,
        "meta_bstar": 5.2326921e-05,
        "meta_mean_motion_dot": 7.3e-07,
        "meta_mean_motion_ddot": 0,
        "tle_line1": "1 59051U 24039A   25346.98653469  .00000073  00000+0  52327-4 0  9990",
        "tle_line2": "2 59051  98.6766 303.8915 0007025 357.7946   2.3199 14.22401341 92791"
      },
      "geometry": {
        "type": "Point",
        "coordinates": [
          103.24477015431259,
          -66.89421689124597
        ]
      }
    },
    {
      "type": "Feature",
      "properties": {
        "norad_id": 60133,
        "name": "GOES 19",
        "group": "weather",
        "lat": -0.0008431614172864498,
        "lon": 120.97801737005067,
        "alt_km": 35791.53622681989,
        "timestamp": "2025-12-13T07:35:41.187916+00:00",
        "meta_object_name": "GOES 19",
        "meta_object_id": "2024-119A",
        "meta_epoch": "2025-12-12T21:40:59.127168",
        "meta_mean_motion": 1.00270797,
        "meta_eccentricity": 0.00012583,
        "meta_inclination": 0.0176,
        "meta_ra_of_asc_node": 158.8033,
        "meta_arg_of_pericenter": 156.363,
        "meta_mean_anomaly": 16.7348,
        "meta_ephemeris_type": 0,
        "meta_classification_type": "U",
        "meta_norad_cat_id": 60133,
        "meta_element_set_no": 999,
        "meta_rev_at_epoch": 509,
        "meta_bstar": 0,
        "meta_mean_motion_dot": -2.36e-06,
        "meta_mean_motion_ddot": 0,
        "tle_line1": "1 60133U 24119A   25346.90346212 -.00000236  00000+0  00000+0 0  9997",
        "tle_line2": "2 60133   0.0176 158.8033 0001258 156.3630  16.7348  1.00270797  5093"
      },
      "geometry": {
        "type": "Point",
        "coordinates": [
          120.97801737005067,
          -0.0008431614172864498
        ]
      }
    },
    {
      "type": "Feature",
      "properties": {
        "norad_id": 65815,
        "name": "FENGYUN 3H",
        "group": "weather",
        "lat": 56.66030382136503,
        "lon": 120.28666106567869,
        "alt_km": 819.8288382220335,
        "timestamp": "2025-12-13T07:35:41.187926+00:00",
        "meta_object_name": "FENGYUN 3H",
        "meta_object_id": "2025-219A",
        "meta_epoch": "2025-12-12T22:33:53.882208",
        "meta_mean_motion": 14.19904782,
        "meta_eccentricity": 6.132e-05,
        "meta_inclination": 98.6584,
        "meta_ra_of_asc_node": 286.5262,
        "meta_arg_of_pericenter": 93.0847,
        "meta_mean_anomaly": 267.04,
        "meta_ephemeris_type": 0,
        "meta_classification_type": "U",
        "meta_norad_cat_id": 65815,
        "meta_element_set_no": 999,
        "meta_rev_at_epoch": 1095,
        "meta_bstar": 9.7643999e-05,
        "meta_mean_motion_dot": 1.64e-06,
        "meta_mean_motion_ddot": 0,
        "tle_line1": "1 65815U 25219A   25346.94020697  .00000164  00000+0  97644-4 0  9995",
        "tle_line2": "2 65815  98.6584 286.5262 0000613  93.0847 267.0400 14.19904782 10958"
      },
      "geometry": {
        "type": "Point",
        "coordinates": [
          120.28666106567869,
          56.66030382136503
        ]
      }
    }
  ]
}